{
  "norad_id": 65904,
  "name": "STARLINK-35348",
  "history": [
    {
      "epoch": "2026-03-28T19:16:15.884832Z",
      "apogee_km": 475.68220498499704,
      "perigee_km": 474.6765493398134,
      "latitude_deg": -2.2018317407713667e-05,
      "longitude_deg": 167.06292580934053,
      "height_km": 475.89974849690805,
      "semi_major_axis_km": 6853.316377162405,
      "eccentricity": 7.337e-05,
      "inclination_deg": 53.1589,
      "raan_deg": 282.3473,
      "arg_perigee_deg": 69.2224,
      "mean_anomaly_deg": 290.8855,
      "mean_motion_rev_day": 15.30211954
    }
  ]
}